0 FENGYUN 1C DEB
1 36226U 99025DVB 13283.42445155  .00001284  00000-0  92655-3 0  1842
2 36226 098.6065 143.1010 0111402 224.0643 135.1268 13.95488303263433
0 FENGYUN 1C DEB
1 36226U 99025DVB 13286.43584056  .00001103  00000-0  79969-3 0  1854
2 36226 098.6009 145.9198 0111404 215.5433 143.8064 13.95494202263853
0 FENGYUN 1C DEB
1 36226U 99025DVB 13290.37930872  .00001134  00000-0  81986-3 0  1860
2 36226 098.6117 149.5973 0113244 204.2824 155.3248 13.95503433264408
0 FENGYUN 1C DEB
1 36226U 99025DVB 13291.38309067  .00001134  00000-0  81986-3 0  1879
2 36226 098.6117 150.5354 0113242 201.4991 158.1396 13.95505786264548
0 FENGYUN 1C DEB
1 36226U 99025DVB 13293.39066092  .00001315  00000-0  94424-3 0  1883
2 36226 098.6111 152.4064 0114982 196.1221 163.6753 13.95512778264827
0 FENGYUN 1C DEB
1 36226U 99025DVB 13295.39821207  .00001532  00000-0  10977-2 0  1894
2 36226 098.5930 154.3035 0112341 190.2547 169.6060 13.95520509265107
